GLOBALSTAR M024         
1 25883U 99043A   25017.20662828 -.00000056  00000+0  30797-3 0  9990
2 25883  52.0057   1.2873 0001347 204.2436 245.1374 11.10166237 98094
GLOBALSTAR M027         
1 25884U 99043B   25017.52128893 -.00000050  00000+0  51131-3 0  9994
2 25884  52.0221  74.2896 0021813 109.2249 251.0907 11.04370850124593
GLOBALSTAR M054         
1 25885U 99043C   25017.55087182 -.00000069  00000+0  59256-4 0  9990
2 25885  52.0103 226.8057 0004643 285.2991  97.0220 11.39215808101880
GLOBALSTAR M058         
1 25907U 99049A   25017.60563115 -.00000021  00000+0  85332-3 0  9993
2 25907  51.9922 151.2655 0001539  25.9744 334.1168 11.93192712134771
GLOBALSTAR M050         
1 25908U 99049B   25017.64058023 -.00000021  00000+0  75591-3 0  9991
2 25908  51.9965 170.0946 0010299  93.4293 349.3480 12.07447408130001
GLOBALSTAR M033         
1 25909U 99049C   25017.55442654 -.00000168  00000+0 -73528-3 0  9990
2 25909  51.9926  52.5676 0012693 312.9169  47.0612 12.20292464517355
GLOBALSTAR M055         
1 25910U 99049D   25017.52534734 -.00000066  00000+0  24180-3 0  9996
2 25910  52.0027  70.7325 0007450 176.3644 183.7262 12.29419015149755
